ONEWEB-0309             
1 49095U 21075W   26171.27834954 -.00000041  00000+0 -13988-3 0  9999
2 49095  87.9128   5.2479 0002051 102.4185 257.7176 13.17648261233989
ONEWEB-0310             
1 49096U 21075X   26171.20885312 -.00000327  00000+0 -94310-3 0  9992
2 49096  87.8937 350.0791 0001804  91.9979 268.1357 13.12440990235582
ONEWEB-0311             
1 49097U 21075Y   26171.28510061  .00000017  00000+0  10485-4 0  9993
2 49097  87.9134   5.2463 0002204  80.6850 279.4531 13.17649810234031
ONEWEB-0312             
1 49098U 21075Z   26170.99654470  .00000069  00000+0  14442-3 0  9997
2 49098  87.9131   5.3144 0002150  90.4955 269.6423 13.17653317233971
ONEWEB-0313             
1 49099U 21075AA  26171.00146558  .00000044  00000+0  80505-4 0  9991
2 49099  87.9128   5.3190 0001955  86.5011 273.6345 13.17649136233961
ONEWEB-0314             
1 49100U 21075AB  26170.96786373  .00000027  00000+0  36944-4 0  9992
2 49100  87.9142   5.2986 0002250  90.1393 269.9996 13.17649238233935
ONEWEB-0315             
1 49101U 21075AC  26170.95304337  .00000491  00000+0  13282-2 0  9991
2 49101  87.8946 350.0942 0002019  81.4957 278.6400 13.12443813235533
ONEWEB-0316             
1 49102U 21075AD  26171.19387354  .00000083  00000+0  17806-3 0  9993
2 49102  87.9165 334.8575 0001892  92.4722 267.6626 13.18687109237602
ONEWEB-0317             
1 49103U 21075AE  26170.57524746  .00000297  00000+0  78990-3 0  9991
2 49103  87.8949 350.1932 0001620 114.9642 245.1655 13.12442645235508
ONEWEB-0318             
1 49104U 21075AF  26171.19050858  .00000044  00000+0  78871-4 0  9998
2 49104  87.9168 334.8600 0001968  87.4440 272.6918 13.18685409237567
ONEWEB-0319             
1 49105U 21075AG  26171.28678606  .00000087  00000+0  19027-3 0  9990
2 49105  87.9130   5.2512 0002123  75.8363 284.3004 13.17649336234018
ONEWEB-0323             
1 49106U 21075AH  26170.93779536  .00000279  00000+0  73995-3 0  9993
2 49106  87.8951 350.1023 0002262  81.0366 279.1019 13.12444800234915
ONEWEB-0329             
1 49107U 21075AJ  26170.08024686 -.00000018  00000+0 -78893-4 0  9995
2 49107  87.9132   5.4921 0002023  88.9308 271.2055 13.17649321233835
ONEWEB-0330             
1 49108U 21075AK  26169.04065967  .00023926  00000+0  61248-1 0  9991
2 49108  87.9135   5.7192 0002036  91.8176 268.3189 13.17848881233738
ONEWEB-0292             
1 49186U 21083A   26171.13648624 -.00000254  00000+0 -73130-3 0  9992
2 49186  87.8952 319.6508 0001937  92.1608 267.9743 13.13471463231318
ONEWEB-0303             
1 49187U 21083B   26171.18713103  .00000055  00000+0  10593-3 0  9994
2 49187  87.9168 334.8591 0001941  89.7167 270.4188 13.18686748230373
ONEWEB-0306             
1 49188U 21083C   26171.17700985 -.00000033  00000+0 -11542-3 0  9991
2 49188  87.9172 334.8493 0001798 100.8301 259.3034 13.18686392230411
ONEWEB-0307             
1 49189U 21083D   26171.13055798 -.00000273  00000+0 -78129-3 0  9993
2 49189  87.8958 319.6487 0001936  95.1204 265.0146 13.13470173231310
ONEWEB-0320             
1 49190U 21083E   26171.19724247  .00000015  00000+0  47248-5 0  9995
2 49190  87.9161 334.8630 0001819  95.1905 264.9434 13.18685435230373
ONEWEB-0321             
1 49191U 21083F   26171.30707415  .00000131  00000+0  28999-3 0  9996
2 49191  87.9194 273.8129 0001880 108.0408 252.0931 13.20772438237241
ONEWEB-0322             
1 49192U 21083G   26170.89778841 -.00001382  00000+0 -38199-2 0  9994
2 49192  87.8930 319.6986 0001976  85.3146 274.8209 13.13461226231270
ONEWEB-0324             
1 49193U 21083H   26170.94263761  .00000037  00000+0  61349-4 0  9990
2 49193  87.9178 334.9006 0002025  97.3328 262.8034 13.18685292230368
ONEWEB-0325             
1 49194U 21083J   26171.17364305 -.00000030  00000+0 -10879-3 0  9999
2 49194  87.9162 334.8636 0001796  92.1771 267.9567 13.18684788230400
ONEWEB-0326             
1 49195U 21083K   26171.18895971 -.00000063  00000+0 -19381-3 0  9992
2 49195  87.9172 334.8583 0001961  86.0805 274.0552 13.18684370230395
ONEWEB-0327             
1 49196U 21083L   26170.96104895  .00000037  00000+0  60877-4 0  9992
2 49196  87.9164 334.9075 0001876  80.4804 279.6541 13.18684879230388
ONEWEB-0328             
1 49197U 21083M   26171.11616909  .00000002  00000+0 -28895-4 0  9992
2 49197  87.8968 319.6249 0001965  97.6753 262.4599 13.13470029231283
ONEWEB-0331             
1 49198U 21083N   26171.18206577  .00000021  00000+0  19528-4 0  9999
2 49198  87.9172 334.8535 0002061  85.6903 274.4465 13.18686374230406
ONEWEB-0333             
1 49199U 21083P   26170.95873539  .00000034  00000+0  58319-4 0  9997
2 49199  87.8955 319.6829 0001810  95.9066 264.2270 13.13469384231279
ONEWEB-0334             
1 49200U 21083Q   26171.24616111  .00000078  00000+0  15911-3 0  9992
2 49200  87.9195 273.8356 0001564 129.9130 230.2141 13.21260431237199
ONEWEB-0335             
1 49201U 21083R   26170.95365752  .00000240  00000+0  62243-3 0  9993
2 49201  87.8957 319.6812 0001928  92.6967 267.4383 13.13470251231287
