OBJECT_NAME,OBJECT_ID,EPOCH,MEAN_MOTION,ECCENTRICITY,INCLINATION,RA_OF_ASC_NODE,ARG_OF_PERICENTER,MEAN_ANOMALY,EPHEMERIS_TYPE,CLASSIFICATION_TYPE,NORAD_CAT_ID,ELEMENT_SET_NO,REV_AT_EPOCH,BSTAR,MEAN_MOTION_DOT,MEAN_MOTION_DDOT
ONEWEB-0309,2021-075W,2026-06-20T06:40:49.400256,13.17648261,.00020514,87.9128,5.2479,102.4185,257.7176,0,U,49095,999,23398,-.13987807E-3,-.41E-6,0
ONEWEB-0310,2021-075X,2026-06-20T05:00:44.909568,13.12440990,.00018046,87.8937,350.0791,91.9979,268.1357,0,U,49096,999,23558,-.94310174E-3,-.327E-5,0
ONEWEB-0311,2021-075Y,2026-06-20T06:50:32.692704,13.17649810,.00022047,87.9134,5.2463,80.6850,279.4531,0,U,49097,999,23403,.10485479E-4,.17E-6,0
ONEWEB-0312,2021-075Z,2026-06-19T23:55:01.462080,13.17653317,.000215,87.9131,5.3144,90.4955,269.6423,0,U,49098,999,23397,.14441681E-3,.69E-6,0
ONEWEB-0313,2021-075AA,2026-06-20T00:02:06.626112,13.17649136,.00019559,87.9128,5.3190,86.5011,273.6345,0,U,49099,999,23396,.80504541E-4,.44E-6,0
ONEWEB-0314,2021-075AB,2026-06-19T23:13:43.426272,13.17649238,.00022505,87.9142,5.2986,90.1393,269.9996,0,U,49100,999,23393,.36944252E-4,.27E-6,0
ONEWEB-0315,2021-075AC,2026-06-19T22:52:22.947168,13.12443813,.00020197,87.8946,350.0942,81.4957,278.6400,0,U,49101,999,23553,.13281702E-2,.491E-5,0
ONEWEB-0316,2021-075AD,2026-06-20T04:39:10.673856,13.18687109,.00018928,87.9165,334.8575,92.4722,267.6626,0,U,49102,999,23760,.17805847E-3,.83E-6,0
ONEWEB-0317,2021-075AE,2026-06-19T13:48:21.380544,13.12442645,.00016205,87.8949,350.1932,114.9642,245.1655,0,U,49103,999,23550,.78989551E-3,.297E-5,0
ONEWEB-0318,2021-075AF,2026-06-20T04:34:19.941312,13.18685409,.00019683,87.9168,334.8600,87.4440,272.6918,0,U,49104,999,23756,.78871335E-4,.44E-6,0
ONEWEB-0319,2021-075AG,2026-06-20T06:52:58.315584,13.17649336,.00021232,87.9130,5.2512,75.8363,284.3004,0,U,49105,999,23401,.19027344E-3,.87E-6,0
ONEWEB-0323,2021-075AH,2026-06-19T22:30:25.519104,13.12444800,.00022627,87.8951,350.1023,81.0366,279.1019,0,U,49106,999,23491,.73995383E-3,.279E-5,0
ONEWEB-0329,2021-075AJ,2026-06-19T01:55:33.328704,13.17649321,.00020232,87.9132,5.4921,88.9308,271.2055,0,U,49107,999,23383,-.78893364E-4,-.18E-6,0
ONEWEB-0330,2021-075AK,2026-06-18T00:58:32.995488,13.17848881,.00020367,87.9135,5.7192,91.8176,268.3189,0,U,49108,999,23373,.61247942E-1,.23926E-3,0
ONEWEB-0292,2021-083A,2026-06-20T03:16:32.411136,13.13471463,.00019371,87.8952,319.6508,92.1608,267.9743,0,U,49186,999,23131,-.7312973E-3,-.254E-5,0
ONEWEB-0303,2021-083B,2026-06-20T04:29:28.120992,13.18686748,.00019416,87.9168,334.8591,89.7167,270.4188,0,U,49187,999,23037,.10592707E-3,.55E-6,0
ONEWEB-0306,2021-083C,2026-06-20T04:14:53.651040,13.18686392,.00017987,87.9172,334.8493,100.8301,259.3034,0,U,49188,999,23041,-.11542273E-3,-.33E-6,0
ONEWEB-0307,2021-083D,2026-06-20T03:08:00.209472,13.13470173,.00019366,87.8958,319.6487,95.1204,265.0146,0,U,49189,999,23131,-.78129476E-3,-.273E-5,0
ONEWEB-0320,2021-083E,2026-06-20T04:44:01.749408,13.18685435,.00018192,87.9161,334.8630,95.1905,264.9434,0,U,49190,999,23037,.472481E-5,.15E-6,0
ONEWEB-0321,2021-083F,2026-06-20T07:22:11.206560,13.20772438,.00018808,87.9194,273.8129,108.0408,252.0931,0,U,49191,999,23724,.28999077E-3,.131E-5,0
ONEWEB-0322,2021-083G,2026-06-19T21:32:48.918624,13.13461226,.00019766,87.8930,319.6986,85.3146,274.8209,0,U,49192,999,23127,-.3819872E-2,-.1382E-4,0
ONEWEB-0324,2021-083H,2026-06-19T22:37:23.889504,13.18685292,.00020252,87.9178,334.9006,97.3328,262.8034,0,U,49193,999,23036,.6134948E-4,.37E-6,0
ONEWEB-0325,2021-083J,2026-06-20T04:10:02.759520,13.18684788,.00017961,87.9162,334.8636,92.1771,267.9567,0,U,49194,999,23040,-.10878541E-3,-.3E-6,0
ONEWEB-0326,2021-083K,2026-06-20T04:32:06.118944,13.18684370,.00019612,87.9172,334.8583,86.0805,274.0552,0,U,49195,999,23039,-.193806E-3,-.63E-6,0
ONEWEB-0327,2021-083L,2026-06-19T23:03:54.629280,13.18684879,.00018768,87.9164,334.9075,80.4804,279.6541,0,U,49196,999,23038,.60876724E-4,.37E-6,0
ONEWEB-0328,2021-083M,2026-06-20T02:47:17.009376,13.13470029,.00019653,87.8968,319.6249,97.6753,262.4599,0,U,49197,999,23128,-.28895146E-4,.2E-7,0
ONEWEB-0331,2021-083N,2026-06-20T04:22:10.482528,13.18686374,.00020614,87.9172,334.8535,85.6903,274.4465,0,U,49198,999,23040,.19528254E-4,.21E-6,0
ONEWEB-0333,2021-083P,2026-06-19T23:00:34.737696,13.13469384,.00018101,87.8955,319.6829,95.9066,264.2270,0,U,49199,999,23127,.58318799E-4,.34E-6,0
ONEWEB-0334,2021-083Q,2026-06-20T05:54:28.319904,13.21260431,.00015647,87.9195,273.8356,129.9130,230.2141,0,U,49200,999,23719,.15911368E-3,.78E-6,0
ONEWEB-0335,2021-083R,2026-06-19T22:53:16.009728,13.13470251,.00019287,87.8957,319.6812,92.6967,267.4383,0,U,49201,999,23128,.62243207E-3,.24E-5,0
